SDA-1676                
1 65986U 25230N   25303.31427090  .00000283  00000+0  24212-3 0  9991
2 65986  81.3015  64.8887 0002964  67.1546 292.9923 13.84573634  1994
SDA-1677                
1 65987U 25230P   25303.31338303  .00000285  00000+0  24301-3 0  9991
2 65987  81.2988  64.8846 0003298  71.8214 288.3302 13.84659396  1993
SDA-1678                
1 65988U 25230Q   25303.30462034  .00000345  00000+0  29195-3 0  9993
2 65988  81.3020  64.8794 0004983 121.4513 238.7132 13.85509564  1992
SDA-1679                
1 65989U 25230R   25303.30669977  .00000274  00000+0  23042-3 0  9995
2 65989  81.3018  64.8828 0005131 110.3219 249.8490 13.85308134  1994
SDA-1680                
1 65990U 25230S   25303.30795321  .00000312  00000+0  26441-3 0  9999
2 65990  81.3009  64.8796 0005051 103.4822 256.6898 13.85186826  1994
SDA-1681                
1 65991U 25230T   25303.30712701  .00000169  00000+0  13854-3 0  9995
2 65991  81.3008  64.8769 0005132 107.9736 252.1981 13.85265615  1995
SDA-1682                
1 65992U 25230U   25303.31161312  .00000305  00000+0  25981-3 0  9999
2 65992  81.3035  64.8885 0003847  82.0588 278.1006 13.84831351  1995
SDA-1683                
1 65993U 25230V   25303.31078515  .00000264  00000+0  22362-3 0  9996
2 65993  81.3025  64.8857 0004170  84.9520 275.2113 13.84911393  1993
SDA-1684                
1 65994U 25230W   25303.31227943  .00000305  00000+0  26059-3 0  9991
2 65994  81.3009  64.8855 0003979  72.2695 287.8896 13.84766963  1991
HULIANWANG DIGUI 12A    
1 65995U 25231A   25303.26440419  .00000097  00000+0  15694-3 0  9993
2 65995  50.0007 299.8994 0006445 302.8058  57.2225 14.03846454  2007
HULIANWANG DIGUI 12B    
1 65996U 25231B   25303.26728181  .00000092  00000+0  15316-3 0  9995
2 65996  49.9995 299.9133 0009009 308.1804  51.8289 14.03877420  2001
HULIANWANG DIGUI 12C    
1 65997U 25231C   25303.26335999  .00000086  00000+0  14988-3 0  9994
2 65997  49.9972 299.8880 0007558 307.5829  52.4388 14.03880965  2007
