CCSDS_OMM_VERS = 2.0
CREATION_DATE  = 
ORIGINATOR     = 

OBJECT_NAME    = SDA-1676
OBJECT_ID      = 2025-230N
CENTER_NAME    = EARTH
REF_FRAME      = TEME
TIME_SYSTEM    = UTC
MEAN_ELEMENT_THEORY = SGP/SGP4

EPOCH          = 2025-10-30T07:32:33.005760
MEAN_MOTION    = 13.84573634
ECCENTRICITY   = .00029642
INCLINATION    = 81.3015
RA_OF_ASC_NODE = 64.8887
ARG_OF_PERICENTER = 67.1546
MEAN_ANOMALY   = 292.9923

EPHEMERIS_TYPE = 0
CLASSIFICATION_TYPE = U
NORAD_CAT_ID   = 65986
ELEMENT_SET_NO = 999
REV_AT_EPOCH   = 199
BSTAR          = .24211957E-3
MEAN_MOTION_DOT = .283E-5
MEAN_MOTION_DDOT = 0

CCSDS_OMM_VERS = 2.0
CREATION_DATE  = 
ORIGINATOR     = 

OBJECT_NAME    = SDA-1677
OBJECT_ID      = 2025-230P
CENTER_NAME    = EARTH
REF_FRAME      = TEME
TIME_SYSTEM    = UTC
MEAN_ELEMENT_THEORY = SGP/SGP4

EPOCH          = 2025-10-30T07:31:16.293792
MEAN_MOTION    = 13.84659396
ECCENTRICITY   = .00032982
INCLINATION    = 81.2988
RA_OF_ASC_NODE = 64.8846
ARG_OF_PERICENTER = 71.8214
MEAN_ANOMALY   = 288.3302

EPHEMERIS_TYPE = 0
CLASSIFICATION_TYPE = U
NORAD_CAT_ID   = 65987
ELEMENT_SET_NO = 999
REV_AT_EPOCH   = 199
BSTAR          = .24300688E-3
MEAN_MOTION_DOT = .285E-5
MEAN_MOTION_DDOT = 0

CCSDS_OMM_VERS = 2.0
CREATION_DATE  = 
ORIGINATOR     = 

OBJECT_NAME    = SDA-1678
OBJECT_ID      = 2025-230Q
CENTER_NAME    = EARTH
REF_FRAME      = TEME
TIME_SYSTEM    = UTC
MEAN_ELEMENT_THEORY = SGP/SGP4

EPOCH          = 2025-10-30T07:18:39.197376
MEAN_MOTION    = 13.85509564
ECCENTRICITY   = .0004983
INCLINATION    = 81.3020
RA_OF_ASC_NODE = 64.8794
ARG_OF_PERICENTER = 121.4513
MEAN_ANOMALY   = 238.7132

EPHEMERIS_TYPE = 0
CLASSIFICATION_TYPE = U
NORAD_CAT_ID   = 65988
ELEMENT_SET_NO = 999
REV_AT_EPOCH   = 199
BSTAR          = .2919475E-3
MEAN_MOTION_DOT = .345E-5
MEAN_MOTION_DDOT = 0

CCSDS_OMM_VERS = 2.0
CREATION_DATE  = 
ORIGINATOR     = 

OBJECT_NAME    = SDA-1679
OBJECT_ID      = 2025-230R
CENTER_NAME    = EARTH
REF_FRAME      = TEME
TIME_SYSTEM    = UTC
MEAN_ELEMENT_THEORY = SGP/SGP4

EPOCH          = 2025-10-30T07:21:38.860128
MEAN_MOTION    = 13.85308134
ECCENTRICITY   = .00051311
INCLINATION    = 81.3018
RA_OF_ASC_NODE = 64.8828
ARG_OF_PERICENTER = 110.3219
MEAN_ANOMALY   = 249.8490

EPHEMERIS_TYPE = 0
CLASSIFICATION_TYPE = U
NORAD_CAT_ID   = 65989
ELEMENT_SET_NO = 999
REV_AT_EPOCH   = 199
BSTAR          = .23042474E-3
MEAN_MOTION_DOT = .274E-5
MEAN_MOTION_DDOT = 0

CCSDS_OMM_VERS = 2.0
CREATION_DATE  = 
ORIGINATOR     = 

OBJECT_NAME    = SDA-1680
OBJECT_ID      = 2025-230S
CENTER_NAME    = EARTH
REF_FRAME      = TEME
TIME_SYSTEM    = UTC
MEAN_ELEMENT_THEORY = SGP/SGP4

EPOCH          = 2025-10-30T07:23:27.157344
MEAN_MOTION    = 13.85186826
ECCENTRICITY   = .00050519
INCLINATION    = 81.3009
RA_OF_ASC_NODE = 64.8796
ARG_OF_PERICENTER = 103.4822
MEAN_ANOMALY   = 256.6898

EPHEMERIS_TYPE = 0
CLASSIFICATION_TYPE = U
NORAD_CAT_ID   = 65990
ELEMENT_SET_NO = 999
REV_AT_EPOCH   = 199
BSTAR          = .26440678E-3
MEAN_MOTION_DOT = .312E-5
MEAN_MOTION_DDOT = 0

CCSDS_OMM_VERS = 2.0
CREATION_DATE  = 
ORIGINATOR     = 

OBJECT_NAME    = SDA-1681
OBJECT_ID      = 2025-230T
CENTER_NAME    = EARTH
REF_FRAME      = TEME
TIME_SYSTEM    = UTC
MEAN_ELEMENT_THEORY = SGP/SGP4

EPOCH          = 2025-10-30T07:22:15.773664
MEAN_MOTION    = 13.85265615
ECCENTRICITY   = .00051329
INCLINATION    = 81.3008
RA_OF_ASC_NODE = 64.8769
ARG_OF_PERICENTER = 107.9736
MEAN_ANOMALY   = 252.1981

EPHEMERIS_TYPE = 0
CLASSIFICATION_TYPE = U
NORAD_CAT_ID   = 65991
ELEMENT_SET_NO = 999
REV_AT_EPOCH   = 199
BSTAR          = .13853565E-3
MEAN_MOTION_DOT = .169E-5
MEAN_MOTION_DDOT = 0

CCSDS_OMM_VERS = 2.0
CREATION_DATE  = 
ORIGINATOR     = 

OBJECT_NAME    = SDA-1682
OBJECT_ID      = 2025-230U
CENTER_NAME    = EARTH
REF_FRAME      = TEME
TIME_SYSTEM    = UTC
MEAN_ELEMENT_THEORY = SGP/SGP4

EPOCH          = 2025-10-30T07:28:43.373568
MEAN_MOTION    = 13.84831351
ECCENTRICITY   = .00038479
INCLINATION    = 81.3035
RA_OF_ASC_NODE = 64.8885
ARG_OF_PERICENTER = 82.0588
MEAN_ANOMALY   = 278.1006

EPHEMERIS_TYPE = 0
CLASSIFICATION_TYPE = U
NORAD_CAT_ID   = 65992
ELEMENT_SET_NO = 999
REV_AT_EPOCH   = 199
BSTAR          = .25980831E-3
MEAN_MOTION_DOT = .305E-5
MEAN_MOTION_DDOT = 0

CCSDS_OMM_VERS = 2.0
CREATION_DATE  = 
ORIGINATOR     = 

OBJECT_NAME    = SDA-1683
OBJECT_ID      = 2025-230V
CENTER_NAME    = EARTH
REF_FRAME      = TEME
TIME_SYSTEM    = UTC
MEAN_ELEMENT_THEORY = SGP/SGP4

EPOCH          = 2025-10-30T07:27:31.836960
MEAN_MOTION    = 13.84911393
ECCENTRICITY   = .00041707
INCLINATION    = 81.3025
RA_OF_ASC_NODE = 64.8857
ARG_OF_PERICENTER = 84.9520
MEAN_ANOMALY   = 275.2113

EPHEMERIS_TYPE = 0
CLASSIFICATION_TYPE = U
NORAD_CAT_ID   = 65993
ELEMENT_SET_NO = 999
REV_AT_EPOCH   = 199
BSTAR          = .22362277E-3
MEAN_MOTION_DOT = .264E-5
MEAN_MOTION_DDOT = 0

CCSDS_OMM_VERS = 2.0
CREATION_DATE  = 
ORIGINATOR     = 

OBJECT_NAME    = SDA-1684
OBJECT_ID      = 2025-230W
CENTER_NAME    = EARTH
REF_FRAME      = TEME
TIME_SYSTEM    = UTC
MEAN_ELEMENT_THEORY = SGP/SGP4

EPOCH          = 2025-10-30T07:29:40.942752
MEAN_MOTION    = 13.84766963
ECCENTRICITY   = .00039793
INCLINATION    = 81.3009
RA_OF_ASC_NODE = 64.8855
ARG_OF_PERICENTER = 72.2695
MEAN_ANOMALY   = 287.8896

EPHEMERIS_TYPE = 0
CLASSIFICATION_TYPE = U
NORAD_CAT_ID   = 65994
ELEMENT_SET_NO = 999
REV_AT_EPOCH   = 199
BSTAR          = .26059229E-3
MEAN_MOTION_DOT = .305E-5
MEAN_MOTION_DDOT = 0

CCSDS_OMM_VERS = 2.0
CREATION_DATE  = 
ORIGINATOR     = 

OBJECT_NAME    = HULIANWANG DIGUI 12A
OBJECT_ID      = 2025-231A
CENTER_NAME    = EARTH
REF_FRAME      = TEME
TIME_SYSTEM    = UTC
MEAN_ELEMENT_THEORY = SGP/SGP4

EPOCH          = 2025-10-30T06:20:44.522016
MEAN_MOTION    = 14.03846454
ECCENTRICITY   = .00064451
INCLINATION    = 50.0007
RA_OF_ASC_NODE = 299.8994
ARG_OF_PERICENTER = 302.8058
MEAN_ANOMALY   = 57.2225

EPHEMERIS_TYPE = 0
CLASSIFICATION_TYPE = U
NORAD_CAT_ID   = 65995
ELEMENT_SET_NO = 999
REV_AT_EPOCH   = 200
BSTAR          = .15694084E-3
MEAN_MOTION_DOT = .97E-6
MEAN_MOTION_DDOT = 0

CCSDS_OMM_VERS = 2.0
CREATION_DATE  = 
ORIGINATOR     = 

OBJECT_NAME    = HULIANWANG DIGUI 12B
OBJECT_ID      = 2025-231B
CENTER_NAME    = EARTH
REF_FRAME      = TEME
TIME_SYSTEM    = UTC
MEAN_ELEMENT_THEORY = SGP/SGP4

EPOCH          = 2025-10-30T06:24:53.148384
MEAN_MOTION    = 14.03877420
ECCENTRICITY   = .00090097
INCLINATION    = 49.9995
RA_OF_ASC_NODE = 299.9133
ARG_OF_PERICENTER = 308.1804
MEAN_ANOMALY   = 51.8289

EPHEMERIS_TYPE = 0
CLASSIFICATION_TYPE = U
NORAD_CAT_ID   = 65996
ELEMENT_SET_NO = 999
REV_AT_EPOCH   = 200
BSTAR          = .15315549E-3
MEAN_MOTION_DOT = .92E-6
MEAN_MOTION_DDOT = 0

CCSDS_OMM_VERS = 2.0
CREATION_DATE  = 
ORIGINATOR     = 

OBJECT_NAME    = HULIANWANG DIGUI 12C
OBJECT_ID      = 2025-231C
CENTER_NAME    = EARTH
REF_FRAME      = TEME
TIME_SYSTEM    = UTC
MEAN_ELEMENT_THEORY = SGP/SGP4

EPOCH          = 2025-10-30T06:19:14.303136
MEAN_MOTION    = 14.03880965
ECCENTRICITY   = .00075581
INCLINATION    = 49.9972
RA_OF_ASC_NODE = 299.8880
ARG_OF_PERICENTER = 307.5829
MEAN_ANOMALY   = 52.4388

EPHEMERIS_TYPE = 0
CLASSIFICATION_TYPE = U
NORAD_CAT_ID   = 65997
ELEMENT_SET_NO = 999
REV_AT_EPOCH   = 200
BSTAR          = .14987627E-3
MEAN_MOTION_DOT = .86E-6
MEAN_MOTION_DDOT = 0

